STARLINK-11080 [DTC]    
1 60727C 24152H   26174.21993056 -.00002834  00000+0 -23355-4 0  1746
2 60727  53.1565 315.9486 0001119  85.7720 175.2507 15.69701945    11
STARLINK-11249 [DTC]    
1 60728C 24152J   26174.32340278  .00026488  00000+0  21822-3 0  1746
2 60728  53.1567 315.3807 0000842  98.1944  55.6166 15.69693636    12
STARLINK-11146 [DTC]    
1 60729C 24152K   26174.22826389  .00013877  00000+0  11435-3 0  1745
2 60729  53.1564 315.7816 0000887  89.1191 274.4994 15.69694131    18
STARLINK-11255 [DTC]    
1 60730C 24152L   26174.26715278  .00009804  00000+0  80770-4 0  1749
2 60730  53.1563 315.5447 0000961  97.6109 153.6291 15.69700294    19
STARLINK-11254 [DTC]    
1 60731C 24152M   26174.21715278 -.00015878  00000+0 -13083-3 0  1747
2 60731  53.1562 315.7349 0000893  96.0899 260.1663 15.69710419    12
STARLINK-11266 [DTC]    
1 60732C 24152N   26174.23659722  .00028008  00000+0  23082-3 0  1748
2 60732  53.1563 315.5709 0001106  95.7818  38.1739 15.69683782    16
STARLINK-32253          
1 60733C 24152P   26174.22409722 -.00024445  00000+0 -82407-3 0  1740
2 60733  53.1567 138.1497 0001162  83.2107 134.4445 15.30196429    18
STARLINK-32179          
1 60734C 24152Q   26174.23034722 -.00033838  00000+0 -11401-2 0  1747
2 60734  53.1594 138.5898 0001562  82.4098 297.0264 15.30218719    14
STARLINK-32289          
1 60737C 24152T   26174.24006944 -.00018998  00000+0 -64038-3 0  1741
2 60737  53.1586 138.4069 0001469  88.1703  54.6521 15.30197763    17
STARLINK-32304          
1 60738C 24152U   26174.24631944 -.00016158  00000+0 -54466-3 0  1746
2 60738  53.1581 138.3424 0001446  86.8558 107.8705 15.30195019    12
STARLINK-32235          
1 60739C 24152V   26174.30812500  .00045799  00000+0  15438-2 0  1749
2 60739  53.1577 138.0214 0001386  81.9216 110.7969 15.30164868    15
STARLINK-32315          
1 60740C 24152W   26174.23034722 -.00013616  00000+0 -45934-3 0  1745
2 60740  53.1572 138.3467 0001075  89.5597  52.1185 15.30169374    12
STARLINK-11242 [DTC]    
1 60903C 24154A   26174.22756944 -.00032819  00000+0 -27048-3 0  1746
2 60903  53.1566 330.7449 0001036  93.7095 272.9416 15.69713542    14
STARLINK-11256 [DTC]    
1 60904C 24154B   26174.31090278 -.00006203  00000+0 -51113-4 0  1747
2 60904  53.1563 330.2772 0001035  96.0418  49.5330 15.69706368    11
STARLINK-11159 [DTC]    
1 60905C 24154C   26174.20187500 -.00033380  00000+0 -27498-3 0  1745
2 60905  53.1566 331.4362 0000955  77.1942 226.7944 15.69725108    18
STARLINK-11264 [DTC]    
1 60906C 24154D   26174.19215278 -.00069666  00000+0 -57406-3 0  1746
2 60906  53.1565 331.4269 0001090  85.4075 191.3507 15.69735816    13
STARLINK-11226 [DTC]    
1 60907C 24154E   26174.25465278  .00004957  00000+0  40845-4 0  1741
2 60907  53.1562 331.0622 0000965  87.9187 209.9668 15.69697577    16
STARLINK-11229 [DTC]    
1 60908C 24154F   26174.31159722  .00023543  00000+0  19399-3 0  1744
2 60908  53.1562 330.7245 0000942  97.6836 189.9193 15.69691459    11
STARLINK-11265 [DTC]    
1 60909C 24154G   26174.23590278 -.00022175  00000+0 -18269-3 0  1748
2 60909  53.1565 331.3233 0001021  97.1896  11.4734 15.69716717    14
STARLINK-11250 [DTC]    
1 60910C 24154H   26174.22618056 -.00026165  00000+0 -21554-3 0  1748
2 60910  53.1563 331.0882 0000924  89.0432 103.3230 15.69721075    13
STARLINK-11190 [DTC]    
1 60911C 24154J   26174.29493056  .00026929  00000+0  22193-3 0  1743
2 60911  53.1565 330.6918 0001120  94.3175 154.5334 15.69684426    14
STARLINK-11225 [DTC]    
1 60912C 24154K   26174.33243056  .00030937  00000+0  25488-3 0  1746
2 60912  53.1566 330.4493 0001076  88.2846  40.3265 15.69689533    18
STARLINK-11273 [DTC]    
1 60913C 24154L   26174.33381944  .00035808  00000+0  29505-3 0  1742
2 60913  53.1567 330.3851 0000976  98.2848  65.9240 15.69684709    14
STARLINK-11271 [DTC]    
1 60915C 24154N   26174.20187500 -.00048943  00000+0 -40331-3 0  1748
2 60915  53.1570 330.9225 0000975  91.3696 102.2592 15.69725156    12
STARLINK-32371          
1 60916C 24154P   26174.25604167  .00057501  00000+0  18477-2 0  1740
2 60916  53.1589 153.2135 0001697  95.1724 193.8338 15.31695642    14
STARLINK-32369          
1 60917C 24154Q   26174.33173611  .00011665  00000+0  37519-3 0  1745
2 60917  53.1588 152.8125 0001528  77.7621 294.6352 15.31688912    11
STARLINK-32317          
1 60918C 24154R   26174.26645833 -.00000076  00000+0 -25473-5 0  1742
2 60918  53.1580 153.7290 0001406  80.4803 340.6834 15.30167930    13
STARLINK-32367          
1 60919C 24154S   26174.18868056 -.00043103  00000+0 -14528-2 0  1742
2 60919  53.1593 153.4809 0001396  84.8910 215.8956 15.30211597    13
STARLINK-32345          
1 60920C 24154T   26174.26298611 -.00030041  00000+0 -10126-2 0  1744
2 60920  53.1583 153.7542 0001520  86.9969 309.2563 15.30201703    17
STARLINK-32356          
1 60921C 24154U   26174.29701389 -.00010628  00000+0 -34184-3 0  1749
2 60921  53.1589 152.9195 0001455  78.9713 127.6095 15.31700397    10
STARLINK-32274          
1 60922C 24154V   26174.27062500 -.00029128  00000+0 -98188-3 0  1742
2 60922  53.1565 153.5116 0001384  85.6698  97.3842 15.30200799    16
STARLINK-32373          
1 60923C 24154W   26174.22965278 -.00000078  00000+0 -26170-5 0  1749
2 60923  53.1569 153.8041 0001271  89.0158 175.7776 15.30170091    13
STARLINK-11239 [DTC]    
1 60924C 24155A   26174.24562500 -.00045475  00000+0 -37467-3 0  1743
2 60924  53.1576 181.2620 0001204  82.2931  12.1235 15.69726953    10
STARLINK-11245 [DTC]    
1 60925C 24155B   26174.27062500 -.00047755  00000+0 -39347-3 0  1744
2 60925  53.1570 180.9689 0001132  91.9516 227.0233 15.69727856    10
STARLINK-11244 [DTC]    
1 60926C 24155C   26174.20187500 -.00073358  00000+0 -60439-3 0  1740
2 60926  53.1570 181.1930 0001137  85.1192 260.5926 15.69741071    19
STARLINK-11243 [DTC]    
1 60927C 24155D   26174.26715278 -.00048115  00000+0 -39635-3 0  1743
2 60927  53.1570 180.9289 0001240  76.4309 250.6440 15.69732169    11
STARLINK-11238 [DTC]    
1 60928C 24155E   26174.28520833 -.00030894  00000+0 -25452-3 0  1744
2 60928  53.1568 180.7256 0001247  74.2037  50.4417 15.69721402    10
STARLINK-11240 [DTC]    
1 60929C 24155F   26174.25673611 -.00075459  00000+0 -62160-3 0  1748
2 60929  53.1572 180.8093 0001238  85.6918 265.6923 15.69745938    12
STARLINK-11251 [DTC]    
1 60930C 24155G   26174.21993056 -.00043706  00000+0 -35991-3 0  1746
2 60930  53.1573 180.9333 0001181  85.3809  85.6319 15.69738431    15
STARLINK-11204 [DTC]    
1 60931C 24155H   26174.30048611 -.00052580  00000+0 -43316-3 0  1745
2 60931  53.1568 180.4796 0001209  78.8662 215.3733 15.69733088    18
STARLINK-11246 [DTC]    
1 60932C 24155J   26174.19631944 -.00042305  00000+0 -34845-3 0  1741
2 60932  53.1567 180.9351 0001148  78.8471  14.1434 15.69732399    17
STARLINK-11207 [DTC]    
1 60933C 24155K   26174.32756944 -.00043812  00000+0 -36094-3 0  1747
2 60933  53.1568 180.2316 0001184  78.0062  64.8451 15.69728242    14
STARLINK-11237 [DTC]    
1 60934C 24155L   26174.25118056 -.00050933  00000+0 -41956-3 0  1741
2 60934  53.1567 180.5504 0001222  76.8185  21.8454 15.69734298    15
STARLINK-11253 [DTC]    
1 60935C 24155M   26174.23381944 -.00048734  00000+0 -40152-3 0  1741
2 60935  53.1576 181.2579 0001208  80.5753 334.8294 15.69728305    14
STARLINK-11241 [DTC]    
1 60936C 24155N   26174.24770833 -.00059110  00000+0 -48693-3 0  1740
2 60936  53.1573 181.1322 0001235  93.4083  68.2565 15.69737956    17
STARLINK-32259          
1 60937C 24155P   26174.19076389 -.00016333  00000+0 -48281-3 0  1743
2 60937  53.1609 359.5529 0000607 107.7789 287.8908 15.34382809    17
STARLINK-32262          
1 60938C 24155Q   26174.27340278  .00309160  00000+0  96726-3 0  1742
2 60938  53.1352 309.2300 0004631 336.1061 132.8117 15.90577798    10
STARLINK-32258          
1 60939C 24155R   26174.24909722  .00005697  00000+0  16839-3 0  1740
2 60939  53.1602 358.5941 0001114  84.2404 262.6982 15.34375699    18
STARLINK-32251          
1 60940C 24155S   26174.18729167 -.00020649  00000+0 -61038-3 0  1745
2 60940  53.1595 359.1341 0000912  96.9434 140.4899 15.34386294    13
STARLINK-32224          
1 60941C 24155T   26174.19770833 -.00017580  00000+0 -51940-3 0  1744
2 60941  53.1599 359.2212 0001199  94.2587 130.9465 15.34399286    12
STARLINK-32184          
1 60942C 24155U   26174.23312500 -.00002743  00000+0 -81042-4 0  1745
2 60942  53.1598 358.7184 0001014  90.8884 144.5078 15.34388479    15
STARLINK-32288          
1 60943C 24155V   26174.32895833  .00054068  00000+0  15981-2 0  1743
2 60943  53.1604 358.2861 0001034  82.2059 311.2470 15.34351260    19
STARLINK-32276          
1 60944C 24155W   26174.28798611 -.00026632  00000+0 -78541-3 0  1745
2 60944  53.1606 358.9558 0000650  96.0285 186.7554 15.34462240    18
STARLINK-11289 [DTC]    
1 60991C 24158B   26174.27131944  .00010219  00000+0  84205-4 0  1746
2 60991  53.1563 120.5776 0001209  83.4603 156.6837 15.69696995    16
STARLINK-11282 [DTC]    
1 60992C 24158C   26174.30951389  .00073461  00000+0  60523-3 0  1748
2 60992  53.1564 120.5602 0001168  81.6222 291.2756 15.69668313    16
STARLINK-11283 [DTC]    
1 60993C 24158D   26174.21368056 -.00024128  00000+0 -19878-3 0  1747
2 60993  53.1566 121.4254 0001252  83.6104 273.2541 15.69717754    13
STARLINK-11267 [DTC]    
1 60994C 24158E   26174.32895833  .00059599  00000+0  49089-3 0  1743
2 60994  53.1566 120.8048 0001143  85.5390 230.8786 15.69681582    14
STARLINK-11269 [DTC]    
1 60995C 24158F   26174.33659722  .00062283  00000+0  51317-3 0  1741
2 60995  53.1565 120.7059 0001219  84.5653 302.7866 15.69672320    18
STARLINK-11281 [DTC]    
1 60996C 24158G   26174.26368056  .00026498  00000+0  21830-3 0  1746
2 60996  53.1567 121.0089 0001170  82.5802 280.2175 15.69693366    14
